FENGYUN 1C DEB          
1 31355U 99025BRK 17345.61529999  .00001165  00000-0  26927-3 0  9994
2 31355  98.8903 210.0299 0099322 329.3233  55.0303 14.54393483563485
